[{"OBJECT_NAME":"STARLINK-32758","OBJECT_ID":"2025-014K","EPOCH":"2026-03-09T06:26:00.363264","MEAN_MOTION":15.27595828,"ECCENTRICITY":7.965e-5,"INCLINATION":42.9949,"RA_OF_ASC_NODE":160.1651,"ARG_OF_PERICENTER":262.5243,"MEAN_ANOMALY":97.5518,"EPHEMERIS_TYPE":0,"CLASSIFICATION_TYPE":"U","NORAD_CAT_ID":62744,"ELEMENT_SET_NO":999,"REV_AT_EPOCH":6315,"BSTAR":0.00067211905,"MEAN_MOTION_DOT":0.00018288,"MEAN_MOTION_DDOT":0},{"OBJECT_NAME":"KUIPER-00208","OBJECT_ID":"2026-030M","EPOCH":"2026-03-09T16:08:08.024640","MEAN_MOTION":15.32208734,"ECCENTRICITY":0.00155248,"INCLINATION":51.8846,"RA_OF_ASC_NODE":219.6993,"ARG_OF_PERICENTER":57.3146,"MEAN_ANOMALY":302.9333,"EPHEMERIS_TYPE":0,"CLASSIFICATION_TYPE":"U","NORAD_CAT_ID":67775,"ELEMENT_SET_NO":999,"REV_AT_EPOCH":508,"BSTAR":0.0013882708,"MEAN_MOTION_DOT":0.00043852,"MEAN_MOTION_DDOT":0}]
